{"fetched_at":"2026-03-29T16:36:15Z","count":15609,"tles":[{"name":"STARLINK-34109","line1":"1 63807U 25092D   26087.62832313  .00032500  00000+0  11844-2 0  9992","line2":"2 63807  42.9985  65.3681 0005765 259.3515 100.6687 15.27593645 51512","category":"Starlink"}]}